      2.10          N: GNSS NAV DATA                        RINEX VERSION / TYPE
fic2rin                                 06/12/2022 00:17:40 PGM / RUN BY / DATE
                                                            END OF HEADER
2  22  6 11  2  0  0.0 -.652787275612D-03  .341060513165D-12  .000000000000D+00
     .174000000000D+03 -.805937500000D+02  .428196407528D-08  .318084633273D-01
    -.452622771263D-05  .203985075932D-01  .997073948383D-05  .515368123245D+04
     .525600000000D+06 -.342726707458D-06  .227567049056D+01 -.141561031342D-06
     .966000789673D+00  .193406250000D+03 -.141436260229D+01 -.828713090655D-08
     .210723063176D-10  .100000000000D+01  .221300000000D+04  .000000000000D+00
     .240000000000D+01  .000000000000D+00 -.176951289177D-07  .174000000000D+03
     .518400000000D+06  .400000000000D+01
1  22  6 11  2  0  0.0  .343868043274D-03 -.795807864051D-11  .000000000000D+00
     .107000000000D+03 -.773125000000D+02  .374408452758D-08 -.130629110621D+00
    -.397674739361D-05  .119895343669D-01  .102911144495D-04  .515366646385D+04
     .525600000000D+06  .167638063431D-07  .236735785421D+01  .165775418282D-06
     .987947700284D+00  .201812500000D+03  .917303718319D+00 -.783889795014D-08
     .925038531568D-10  .100000000000D+01  .221300000000D+04  .000000000000D+00
     .240000000000D+01  .000000000000D+00  .512227416039D-08  .107000000000D+03
     .518400000000D+06  .400000000000D+01
29 22  6 12  0  0  0.0 -.523120164871D-03 -.386535248253D-11  .000000000000D+00
     .690000000000D+02 -.321250000000D+02  .428410702168D-08  .115375090599D+01
    -.165961682796D-05  .222159130499D-02  .555068254471D-06  .515369211578D+04
     .000000000000D+00  .558793544769D-07  .126037669522D+01  .372529029846D-07
     .980477968889D+00  .379187500000D+03  .229425947460D+01 -.838820654533D-08
    -.167864135072D-10  .100000000000D+01  .221400000000D+04  .000000000000D+00
     .240000000000D+01  .000000000000D+00 -.102445483208D-07  .690000000000D+02
    -.720000000000D+04  .400000000000D+01
18 22  6 12  0  0  0.0  .144761055708D-03 -.106865627458D-10  .000000000000D+00
     .360000000000D+02 -.133687500000D+03  .405266880992D-08 -.779518681008D+00
    -.699050724506D-05  .239179655910D-02  .953674316406D-05  .515373784447D+04
     .000000000000D+00  .353902578354D-07  .225242703076D+01 -.298023223877D-07
     .971765368625D+00  .198968750000D+03  .300779467808D+01 -.787282793488D-08
    -.214294640518D-11  .100000000000D+01  .221400000000D+04  .000000000000D+00
     .240000000000D+01  .000000000000D+00 -.838190317154D-08  .360000000000D+02
    -.720000000000D+04  .400000000000D+01
24 22  6 12  0  0  0.0  .222743023187D-03 -.829913915368D-11  .000000000000D+00
     .400000000000D+02  .184375000000D+01  .511128433408D-08 -.828112236279D+00
     .130385160446D-07  .125299721258D-01  .111591070890D-04  .515368511391D+04
     .000000000000D+00  .134110450745D-06 -.988630670904D+00  .227242708206D-06
     .934088700544D+00  .149062500000D+03  .816642311927D+00 -.832391815317D-08
    -.804676375144D-09  .100000000000D+01  .221400000000D+04  .000000000000D+00
     .240000000000D+01  .000000000000D+00  .279396772385D-08  .400000000000D+02
    -.720000000000D+04  .400000000000D+01
13 22  6 12  0  0  0.0  .328279100358D-03  .693489710102D-11  .000000000000D+00
     .200000000000D+02 -.164375000000D+02  .496877839814D-08  .629667296422D+00
    -.642612576485D-06  .599194713868D-02  .575929880142D-05  .515366550064D+04
     .000000000000D+00  .298023223877D-07 -.182126432907D+01  .726431608200D-07
     .968299790304D+00  .270718750000D+03  .915782483936D+00 -.829070248389D-08
    -.406802659249D-09  .100000000000D+01  .221400000000D+04  .000000000000D+00
     .240000000000D+01  .000000000000D+00 -.116415321827D-07  .200000000000D+02
    -.720000000000D+04  .400000000000D+01
7  22  6 12  0  0  0.0  .321869738400D-03 -.454747350886D-12  .000000000000D+00
     .470000000000D+02  .251250000000D+02  .449483008486D-08 -.180528925048D+01
     .111199915409D-05  .162198321195D-01  .107549130917D-04  .515365803909D+04
     .000000000000D+00  .270083546638D-06 -.903931731288D+00 -.152736902237D-06
     .950662257459D+00  .165875000000D+03 -.226070124861D+01 -.766853371092D-08
    -.520378818724D-09  .100000000000D+01  .221400000000D+04  .000000000000D+00
     .240000000000D+01  .000000000000D+00 -.111758708954D-07  .470000000000D+02
    -.720000000000D+04  .400000000000D+01
4  22  6 12  0  0  0.0 -.158023554832D-03  .397903932026D-11  .000000000000D+00
     .167000000000D+03 -.152500000000D+02  .506949687918D-08  .624715965333D+00
    -.836327672005D-06  .184078619350D-02  .504031777382D-05  .515359761429D+04
     .000000000000D+00 -.484287738800D-07 -.192212718367D+01 -.856816768646D-07
     .960981498725D+00  .277312500000D+03 -.297180310584D+01 -.832498962638D-08
    -.302512600864D-09  .100000000000D+01  .221400000000D+04  .000000000000D+00
     .240000000000D+01  .000000000000D+00 -.465661287308D-08  .167000000000D+03
    -.720000000000D+04  .400000000000D+01
31 22  6 12  0  0  0.0 -.181432347745D-03 -.159161572810D-11  .000000000000D+00
     .820000000000D+02  .678125000000D+01  .444589947527D-08 -.228562771665D+01
     .339001417160D-06  .104360032128D-01  .115279108286D-04  .515375606346D+04
     .000000000000D+00 -.186264514923D-07 -.885377406700D+00 -.100582838058D-06
     .954869873180D+00  .153625000000D+03  .394321748969D+00 -.779175312922D-08
    -.517878714584D-09  .100000000000D+01  .221400000000D+04  .000000000000D+00
     .240000000000D+01  .000000000000D+00 -.135041773319D-07  .820000000000D+02
    -.720000000000D+04  .400000000000D+01
16 22  6 12  0  0  0.0 -.508262310177D-03 -.284217094304D-11  .000000000000D+00
     .920000000000D+02  .133375000000D+03  .416624496940D-08  .201311617656D+01
     .675581395626D-05  .127138239332D-01  .707246363163D-05  .515366831207D+04
     .000000000000D+00 -.270083546638D-06  .227467107467D+00 -.106170773506D-06
     .969313092215D+00  .248875000000D+03  .729392514240D+00 -.802890586473D-08
     .217509060125D-09  .100000000000D+01  .221400000000D+04  .000000000000D+00
     .240000000000D+01  .000000000000D+00 -.102445483208D-07  .920000000000D+02
    -.720000000000D+04  .400000000000D+01
10 22  6 12  0  0  0.0 -.451257452369D-03 -.150066625793D-10  .000000000000D+00
     .117000000000D+03 -.231250000000D+01  .427053502778D-08  .312172396586D+01
    -.108033418655D-06  .764422107022D-02  .105090439320D-04  .515368060493D+04
     .000000000000D+00 -.428408384323D-07 -.300616114572D+01 -.178813934326D-06
     .974189243944D+00  .185406250000D+03 -.249858796815D+01 -.761138847345D-08
     .620382984299D-09  .100000000000D+01  .221400000000D+04  .000000000000D+00
     .240000000000D+01  .000000000000D+00  .232830643654D-08  .117000000000D+03
    -.720000000000D+04  .400000000000D+01
8  22  6 12  0  0  0.0 -.717672519386D-04 -.159161572810D-11  .000000000000D+00
     .960000000000D+02 -.628125000000D+01  .459340561950D-08  .102331721636D+01
    -.357627868652D-06  .744534295518D-02  .923871994019D-06  .515377621841D+04
     .000000000000D+00  .931322574615D-08  .116338481549D+01  .104308128357D-06
     .963200324131D+00  .362093750000D+03  .173859040601D+00 -.850392565121D-08
    -.496449250533D-10  .100000000000D+01  .221400000000D+04  .000000000000D+00
     .340000000000D+01  .000000000000D+00  .512227416039D-08  .960000000000D+02
    -.720000000000D+04  .400000000000D+01
6  22  6 12  0  0  0.0  .339922495186D-03  .154614099301D-10  .000000000000D+00
     .960000000000D+02 -.124843750000D+03  .372622664087D-08 -.918914800741D+00
    -.680424273014D-05  .250172743108D-02  .104475766420D-04  .515374913406D+04
     .000000000000D+00 -.149011611938D-07  .223805732921D+01 -.242143869400D-07
     .987269378818D+00  .192343750000D+03 -.853052196819D+00 -.774567978151D-08
    -.203579908492D-10  .100000000000D+01  .221400000000D+04  .000000000000D+00
     .240000000000D+01  .000000000000D+00  .372529029846D-08  .960000000000D+02
    -.720000000000D+04  .400000000000D+01
15 22  6 12  0  0  0.0 -.539654865861D-04  .295585778076D-11  .000000000000D+00
     .610000000000D+02  .187500000000D+00  .599989277676D-08  .789284841225D-01
     .271946191788D-06  .141155830352D-01  .479072332382D-05  .515355469131D+04
     .000000000000D+00 -.100582838058D-06 -.208520802318D+01  .135973095894D-06
     .930077724419D+00  .269312500000D+03  .109347100080D+01 -.898037406863D-08
    -.832177520677D-10  .100000000000D+01  .221400000000D+04  .000000000000D+00
     .240000000000D+01  .000000000000D+00 -.107102096081D-07  .610000000000D+02
    -.720000000000D+04  .400000000000D+01
32 22  6 12  0  0  0.0 -.148975756019D-03 -.932232069317D-11  .000000000000D+00
     .710000000000D+02 -.956250000000D+01  .517200114889D-08  .174939706671D+01
    -.577419996262D-06  .600274663884D-02  .511296093464D-05  .515359705353D+04
     .000000000000D+00 -.178813934326D-06 -.196433944493D+01 -.130385160446D-07
     .957859875851D+00  .282937500000D+03 -.228113928942D+01 -.833177562333D-08
    -.153934983439D-09  .100000000000D+01  .221400000000D+04  .000000000000D+00
     .240000000000D+01  .000000000000D+00  .465661287308D-09  .710000000000D+02
    -.720000000000D+04  .400000000000D+01
30 22  6 12  0  0  0.0 -.531088560820D-03 -.113686837722D-11  .000000000000D+00
     .460000000000D+02  .178750000000D+02  .485913097374D-08 -.184718200897D+01
     .797212123871D-06  .589454453439D-02  .109747052193D-04  .515375919914D+04
     .000000000000D+00  .391155481339D-07 -.892538083485D+00 -.763684511185D-07
     .935817426449D+00  .154718750000D+03 -.267427766932D+01 -.800176187693D-08
    -.559309011751D-09  .100000000000D+01  .221400000000D+04  .000000000000D+00
     .240000000000D+01  .000000000000D+00  .372529029846D-08  .460000000000D+02
    -.720000000000D+04  .400000000000D+01
